CCSDS_OMM_VERS = 2.0
CREATION_DATE  = 
ORIGINATOR     = 

OBJECT_NAME    = STARLINK-36585
OBJECT_ID      = 2026-014J
CENTER_NAME    = EARTH
REF_FRAME      = TEME
TIME_SYSTEM    = UTC
MEAN_ELEMENT_THEORY = SGP/SGP4

EPOCH          = 2026-01-31T06:00:02.999808
MEAN_MOTION    = 15.92682089
ECCENTRICITY   = .00015248
INCLINATION    = 97.2811
RA_OF_ASC_NODE = 274.1911
ARG_OF_PERICENTER = 95.8450
MEAN_ANOMALY   = 142.4770

EPHEMERIS_TYPE = 0
CLASSIFICATION_TYPE = U
NORAD_CAT_ID   = 67540
ELEMENT_SET_NO = 999
REV_AT_EPOCH   = 267
BSTAR          = -.4821591E-2
MEAN_MOTION_DOT = -.1632003E-1
MEAN_MOTION_DDOT = .75099406E-3

CCSDS_OMM_VERS = 2.0
CREATION_DATE  = 
ORIGINATOR     = 

OBJECT_NAME    = STARLINK-36579
OBJECT_ID      = 2026-014K
CENTER_NAME    = EARTH
REF_FRAME      = TEME
TIME_SYSTEM    = UTC
MEAN_ELEMENT_THEORY = SGP/SGP4

EPOCH          = 2026-01-31T06:00:02.999808
MEAN_MOTION    = 15.92885302
ECCENTRICITY   = .00015549
INCLINATION    = 97.2813
RA_OF_ASC_NODE = 274.1933
ARG_OF_PERICENTER = 95.0843
MEAN_ANOMALY   = 147.4534

EPHEMERIS_TYPE = 0
CLASSIFICATION_TYPE = U
NORAD_CAT_ID   = 67541
ELEMENT_SET_NO = 999
REV_AT_EPOCH   = 267
BSTAR          = -.47442591E-2
MEAN_MOTION_DOT = -.1622928E-1
MEAN_MOTION_DDOT = .74479623E-3

CCSDS_OMM_VERS = 2.0
CREATION_DATE  = 
ORIGINATOR     = 

OBJECT_NAME    = STARLINK-35934
OBJECT_ID      = 2026-014L
CENTER_NAME    = EARTH
REF_FRAME      = TEME
TIME_SYSTEM    = UTC
MEAN_ELEMENT_THEORY = SGP/SGP4

EPOCH          = 2026-01-31T06:00:02.999808
MEAN_MOTION    = 15.93116138
ECCENTRICITY   = .00014958
INCLINATION    = 97.2810
RA_OF_ASC_NODE = 274.1953
ARG_OF_PERICENTER = 94.5304
MEAN_ANOMALY   = 152.6511

EPHEMERIS_TYPE = 0
CLASSIFICATION_TYPE = U
NORAD_CAT_ID   = 67542
ELEMENT_SET_NO = 999
REV_AT_EPOCH   = 266
BSTAR          = -.46760567E-2
MEAN_MOTION_DOT = -.1618913E-1
MEAN_MOTION_DDOT = .74312497E-3

CCSDS_OMM_VERS = 2.0
CREATION_DATE  = 
ORIGINATOR     = 

OBJECT_NAME    = STARLINK-36581
OBJECT_ID      = 2026-014M
CENTER_NAME    = EARTH
REF_FRAME      = TEME
TIME_SYSTEM    = UTC
MEAN_ELEMENT_THEORY = SGP/SGP4

EPOCH          = 2026-01-31T06:00:02.999808
MEAN_MOTION    = 15.93308447
ECCENTRICITY   = .00015148
INCLINATION    = 97.2808
RA_OF_ASC_NODE = 274.1970
ARG_OF_PERICENTER = 97.2972
MEAN_ANOMALY   = 153.7827

EPHEMERIS_TYPE = 0
CLASSIFICATION_TYPE = U
NORAD_CAT_ID   = 67543
ELEMENT_SET_NO = 999
REV_AT_EPOCH   = 267
BSTAR          = -.46410947E-2
MEAN_MOTION_DOT = -.1622927E-1
MEAN_MOTION_DDOT = .74801646E-3

CCSDS_OMM_VERS = 2.0
CREATION_DATE  = 
ORIGINATOR     = 

OBJECT_NAME    = STARLINK-36565
OBJECT_ID      = 2026-014N
CENTER_NAME    = EARTH
REF_FRAME      = TEME
TIME_SYSTEM    = UTC
MEAN_ELEMENT_THEORY = SGP/SGP4

EPOCH          = 2026-01-31T06:00:02.999808
MEAN_MOTION    = 15.93476951
ECCENTRICITY   = .0001483
INCLINATION    = 97.2801
RA_OF_ASC_NODE = 274.1980
ARG_OF_PERICENTER = 103.8656
MEAN_ANOMALY   = 150.6622

EPHEMERIS_TYPE = 0
CLASSIFICATION_TYPE = U
NORAD_CAT_ID   = 67544
ELEMENT_SET_NO = 999
REV_AT_EPOCH   = 267
BSTAR          = -.46024275E-2
MEAN_MOTION_DOT = -.1623593E-1
MEAN_MOTION_DDOT = .74987806E-3

CCSDS_OMM_VERS = 2.0
CREATION_DATE  = 
ORIGINATOR     = 

OBJECT_NAME    = STARLINK-36583
OBJECT_ID      = 2026-014P
CENTER_NAME    = EARTH
REF_FRAME      = TEME
TIME_SYSTEM    = UTC
MEAN_ELEMENT_THEORY = SGP/SGP4

EPOCH          = 2026-01-31T06:00:02.999808
MEAN_MOTION    = 15.93639377
ECCENTRICITY   = .0001466
INCLINATION    = 97.2799
RA_OF_ASC_NODE = 274.1994
ARG_OF_PERICENTER = 96.7198
MEAN_ANOMALY   = 161.2594

EPHEMERIS_TYPE = 0
CLASSIFICATION_TYPE = U
NORAD_CAT_ID   = 67545
ELEMENT_SET_NO = 999
REV_AT_EPOCH   = 267
BSTAR          = -.45408228E-2
MEAN_MOTION_DOT = -.1615602E-1
MEAN_MOTION_DDOT = .744282E-3

CCSDS_OMM_VERS = 2.0
CREATION_DATE  = 
ORIGINATOR     = 

OBJECT_NAME    = STARLINK-36580
OBJECT_ID      = 2026-014Q
CENTER_NAME    = EARTH
REF_FRAME      = TEME
TIME_SYSTEM    = UTC
MEAN_ELEMENT_THEORY = SGP/SGP4

EPOCH          = 2026-01-31T06:00:02.999808
MEAN_MOTION    = 15.93853901
ECCENTRICITY   = .00014663
INCLINATION    = 97.2795
RA_OF_ASC_NODE = 274.2011
ARG_OF_PERICENTER = 102.3834
MEAN_ANOMALY   = 159.9365

EPHEMERIS_TYPE = 0
CLASSIFICATION_TYPE = U
NORAD_CAT_ID   = 67546
ELEMENT_SET_NO = 999
REV_AT_EPOCH   = 267
BSTAR          = -.44808095E-2
MEAN_MOTION_DOT = -.1612296E-1
MEAN_MOTION_DDOT = .74309429E-3

CCSDS_OMM_VERS = 2.0
CREATION_DATE  = 
ORIGINATOR     = 

OBJECT_NAME    = STARLINK-36584
OBJECT_ID      = 2026-014R
CENTER_NAME    = EARTH
REF_FRAME      = TEME
TIME_SYSTEM    = UTC
MEAN_ELEMENT_THEORY = SGP/SGP4

EPOCH          = 2026-01-31T06:00:02.999808
MEAN_MOTION    = 15.93999056
ECCENTRICITY   = .00014509
INCLINATION    = 97.2794
RA_OF_ASC_NODE = 274.2022
ARG_OF_PERICENTER = 98.2835
MEAN_ANOMALY   = 167.1365

EPHEMERIS_TYPE = 0
CLASSIFICATION_TYPE = U
NORAD_CAT_ID   = 67547
ELEMENT_SET_NO = 999
REV_AT_EPOCH   = 267
BSTAR          = -.44336836E-2
MEAN_MOTION_DOT = -.1607588E-1
MEAN_MOTION_DDOT = .74017943E-3

CCSDS_OMM_VERS = 2.0
CREATION_DATE  = 
ORIGINATOR     = 

OBJECT_NAME    = STARLINK-36586
OBJECT_ID      = 2026-014S
CENTER_NAME    = EARTH
REF_FRAME      = TEME
TIME_SYSTEM    = UTC
MEAN_ELEMENT_THEORY = SGP/SGP4

EPOCH          = 2026-01-31T06:00:02.999808
MEAN_MOTION    = 15.94209266
ECCENTRICITY   = .00014787
INCLINATION    = 97.2799
RA_OF_ASC_NODE = 274.2047
ARG_OF_PERICENTER = 99.1060
MEAN_ANOMALY   = 170.5848

EPHEMERIS_TYPE = 0
CLASSIFICATION_TYPE = U
NORAD_CAT_ID   = 67548
ELEMENT_SET_NO = 999
REV_AT_EPOCH   = 267
BSTAR          = -.43726855E-2
MEAN_MOTION_DOT = -.1603151E-1
MEAN_MOTION_DDOT = .73799354E-3

CCSDS_OMM_VERS = 2.0
CREATION_DATE  = 
ORIGINATOR     = 

OBJECT_NAME    = STARLINK-36564
OBJECT_ID      = 2026-014T
CENTER_NAME    = EARTH
REF_FRAME      = TEME
TIME_SYSTEM    = UTC
MEAN_ELEMENT_THEORY = SGP/SGP4

EPOCH          = 2026-01-31T06:00:02.999808
MEAN_MOTION    = 15.94392265
ECCENTRICITY   = .00013821
INCLINATION    = 97.2799
RA_OF_ASC_NODE = 274.2064
ARG_OF_PERICENTER = 95.8791
MEAN_ANOMALY   = 177.5197

EPHEMERIS_TYPE = 0
CLASSIFICATION_TYPE = U
NORAD_CAT_ID   = 67549
ELEMENT_SET_NO = 999
REV_AT_EPOCH   = 261
BSTAR          = -.43302222E-2
MEAN_MOTION_DOT = -.1602948E-1
MEAN_MOTION_DDOT = .73922298E-3

CCSDS_OMM_VERS = 2.0
CREATION_DATE  = 
ORIGINATOR     = 

OBJECT_NAME    = STARLINK-36563
OBJECT_ID      = 2026-014U
CENTER_NAME    = EARTH
REF_FRAME      = TEME
TIME_SYSTEM    = UTC
MEAN_ELEMENT_THEORY = SGP/SGP4

EPOCH          = 2026-01-31T06:00:02.999808
MEAN_MOTION    = 15.94568147
ECCENTRICITY   = .00013685
INCLINATION    = 97.2789
RA_OF_ASC_NODE = 274.2073
ARG_OF_PERICENTER = 96.6543
MEAN_ANOMALY   = 180.4145

EPHEMERIS_TYPE = 0
CLASSIFICATION_TYPE = U
NORAD_CAT_ID   = 67550
ELEMENT_SET_NO = 999
REV_AT_EPOCH   = 267
BSTAR          = -.42640873E-2
MEAN_MOTION_DOT = -.1593305E-1
MEAN_MOTION_DDOT = .73232534E-3

CCSDS_OMM_VERS = 2.0
CREATION_DATE  = 
ORIGINATOR     = 

OBJECT_NAME    = STARLINK-36566
OBJECT_ID      = 2026-014V
CENTER_NAME    = EARTH
REF_FRAME      = TEME
TIME_SYSTEM    = UTC
MEAN_ELEMENT_THEORY = SGP/SGP4

EPOCH          = 2026-01-31T06:00:02.999808
MEAN_MOTION    = 15.94730274
ECCENTRICITY   = .00014011
INCLINATION    = 97.2785
RA_OF_ASC_NODE = 274.2086
ARG_OF_PERICENTER = 104.3005
MEAN_ANOMALY   = 176.1162

EPHEMERIS_TYPE = 0
CLASSIFICATION_TYPE = U
NORAD_CAT_ID   = 67551
ELEMENT_SET_NO = 999
REV_AT_EPOCH   = 267
BSTAR          = -.42146385E-2
MEAN_MOTION_DOT = -.1588459E-1
MEAN_MOTION_DDOT = .72942544E-3

CCSDS_OMM_VERS = 2.0
CREATION_DATE  = 
ORIGINATOR     = 

OBJECT_NAME    = STARLINK-36567
OBJECT_ID      = 2026-014W
CENTER_NAME    = EARTH
REF_FRAME      = TEME
TIME_SYSTEM    = UTC
MEAN_ELEMENT_THEORY = SGP/SGP4

EPOCH          = 2026-01-31T06:00:02.999808
MEAN_MOTION    = 15.94893309
ECCENTRICITY   = .00013431
INCLINATION    = 97.2784
RA_OF_ASC_NODE = 274.2101
ARG_OF_PERICENTER = 107.4557
MEAN_ANOMALY   = 176.3373

EPHEMERIS_TYPE = 0
CLASSIFICATION_TYPE = U
NORAD_CAT_ID   = 67552
ELEMENT_SET_NO = 999
REV_AT_EPOCH   = 267
BSTAR          = -.41731577E-2
MEAN_MOTION_DOT = -.1586489E-1
MEAN_MOTION_DDOT = .72898637E-3

CCSDS_OMM_VERS = 2.0
CREATION_DATE  = 
ORIGINATOR     = 

OBJECT_NAME    = STARLINK-36569
OBJECT_ID      = 2026-014X
CENTER_NAME    = EARTH
REF_FRAME      = TEME
TIME_SYSTEM    = UTC
MEAN_ELEMENT_THEORY = SGP/SGP4

EPOCH          = 2026-01-31T06:00:02.999808
MEAN_MOTION    = 15.95112360
ECCENTRICITY   = .00013151
INCLINATION    = 97.2782
RA_OF_ASC_NODE = 274.2121
ARG_OF_PERICENTER = 106.0060
MEAN_ANOMALY   = 182.1499

EPHEMERIS_TYPE = 0
CLASSIFICATION_TYPE = U
NORAD_CAT_ID   = 67553
ELEMENT_SET_NO = 999
REV_AT_EPOCH   = 267
BSTAR          = -.41142883E-2
MEAN_MOTION_DOT = -.1582463E-1
MEAN_MOTION_DDOT = .72722138E-3

CCSDS_OMM_VERS = 2.0
CREATION_DATE  = 
ORIGINATOR     = 

OBJECT_NAME    = STARLINK-36395
OBJECT_ID      = 2026-014Y
CENTER_NAME    = EARTH
REF_FRAME      = TEME
TIME_SYSTEM    = UTC
MEAN_ELEMENT_THEORY = SGP/SGP4

EPOCH          = 2026-01-31T06:00:02.999808
MEAN_MOTION    = 15.95682099
ECCENTRICITY   = .00014271
INCLINATION    = 97.2779
RA_OF_ASC_NODE = 274.2175
ARG_OF_PERICENTER = 102.6524
MEAN_ANOMALY   = 197.1021

EPHEMERIS_TYPE = 0
CLASSIFICATION_TYPE = U
NORAD_CAT_ID   = 67554
ELEMENT_SET_NO = 999
REV_AT_EPOCH   = 267
BSTAR          = -.39483728E-2
MEAN_MOTION_DOT = -.1565767E-1
MEAN_MOTION_DDOT = .71733286E-3

